ONEWEB-0056             
1 45159U 20008AE  25346.29318202 -.00000139  00000+0 -43454-3 0  9998
2 45159  87.8815  73.5186 0001485 109.7882 250.3406 13.10376757283706
ONEWEB-0057             
1 45160U 20008AF  25346.30079511  .00001685  00000+0  47895-2 0  9996
2 45160  87.8810  73.5301 0001706 110.8002 249.3308 13.10367402283879
ONEWEB-0058             
1 45161U 20008AG  25346.28750293 -.00000462  00000+0 -13585-2 0  9990
2 45161  87.8814  73.5441 0001682  96.1572 263.9747 13.10375488283940
ONEWEB-0059             
1 45162U 20008AH  25346.28403310 -.00000545  00000+0 -15985-2 0  9994
2 45162  87.8816  73.5454 0001758 103.4898 256.6425 13.10373612283842
ONEWEB-0062             
1 45163U 20008AJ  25346.30978693  .00000725  00000+0  20400-2 0  9995
2 45163  87.8806  73.5143 0001572  84.1390 275.9917 13.10373973283719
ONEWEB-0065             
1 45164U 20008AK  25346.26401337 -.00000319  00000+0 -95024-3 0  9993
2 45164  87.8799  73.5395 0001616 117.6974 242.4318 13.10371014283403
ONEWEB-0066             
1 45424U 20020A   25346.21960471 -.00000189  00000+0 -56878-3 0  9999
2 45424  87.8864  58.2946 0001961 104.9894 255.1451 13.11413207278179
ONEWEB-0067             
1 45425U 20020B   25346.25704971  .00000148  00000+0  38043-3 0  9992
2 45425  87.8871  58.1908 0001783 106.4931 253.6393 13.11418685278236
